ONEWEB-0298             
1 49087U 21075N   24004.51254685  .00000009  00000+0 -96516-5 0  9990
2 49087  87.9204 183.7694 0001420  80.1536 279.9756 13.17647555115802
ONEWEB-0299             
1 49088U 21075P   24004.51411784  .00000042  00000+0  75112-4 0  9990
2 49088  87.9200 183.7460 0001410  78.1979 281.9311 13.17649996115785
ONEWEB-0300             
1 49089U 21075Q   24004.84199772  .00000114  00000+0  28183-3 0  9992
2 49089  87.9006 168.5852 0001221  99.7156 260.4110 13.12441339118881
ONEWEB-0301             
1 49090U 21075R   24004.52117413  .00000434  00000+0  11721-2 0  9995
2 49090  87.9004 168.6506 0001396 109.1078 251.0201 13.12441816117213
ONEWEB-0302             
1 49091U 21075S   24004.50847145  .00000386  00000+0  10364-2 0  9994
2 49091  87.9005 168.6509 0001612  86.8602 273.2711 13.12445854117198
ONEWEB-0304             
1 49092U 21075T   24004.86847908  .00000046  00000+0  85634-4 0  9998
2 49092  87.9203 183.6851 0001634  81.4278 278.7039 13.17646650116789
ONEWEB-0305             
1 49093U 21075U   24004.48089617  .00000053  00000+0  10402-3 0  9990
2 49093  87.9200 183.7533 0001398  67.5219 292.6061 13.17647839115781
ONEWEB-0308             
1 49094U 21075V   24004.50211266  .00000198  00000+0  51552-3 0  9992
2 49094  87.9003 168.6530 0001351  96.5067 263.6215 13.12443852117206
